IRIDIUM 159             
1 43578U 18061K   25101.12979694  .00000515  00000+0  17666-3 0  9998
2 43578  86.3970 237.1992 0002321  94.7618 265.3843 14.34219337351454
IRIDIUM 180             
1 43922U 19002A   25101.19906217  .00000283  00000+0  93984-4 0  9995
2 43922  86.4035 174.1480 0002225  91.9438 268.2012 14.34218961327112
IRIDIUM 176             
1 43923U 19002B   25101.76797610  .00002089  00000+0  32736-3 0  9997
2 43923  86.6154 173.9096 0002167  83.6811 276.4652 14.72244957335773
IRIDIUM 168             
1 43924U 19002C   25101.19271924  .00000517  00000+0  17744-3 0  9996
2 43924  86.4035 174.2155 0002261  96.7441 263.4012 14.34219509327050
IRIDIUM 173             
1 43925U 19002D   25101.18003456  .00000323  00000+0  10841-3 0  9995
2 43925  86.4030 174.1275 0002197  92.1056 268.0392 14.34219126327044
IRIDIUM 169             
1 43926U 19002E   25101.38044515  .00000386  00000+0  11979-3 0  9991
2 43926  86.4289 205.6064 0000901  63.9815 296.1476 14.38601266328148
IRIDIUM 175             
1 43928U 19002G   25101.83072363  .00000699  00000+0  10699-3 0  9990
2 43928  86.1479 130.1941 0001550 112.0780 248.0601 14.72233055335770
